[{"OBJECT_NAME":"ONEWEB-0371","OBJECT_ID":"2021-090U","EPOCH":"2026-05-06T11:46:30.961632","MEAN_MOTION":13.1972499,"ECCENTRICITY":0.0001725,"INCLINATION":87.915,"RA_OF_ASC_NODE":313.2808,"ARG_OF_PERICENTER":86.6472,"MEAN_ANOMALY":273.4858,"EPHEMERIS_TYPE":0,"CLASSIFICATION_TYPE":"U","NORAD_CAT_ID":49297,"ELEMENT_SET_NO":999,"REV_AT_EPOCH":22095,"BSTAR":-0.00014904,"MEAN_MOTION_DOT":-4.7e-07,"MEAN_MOTION_DDOT":0.0},{"OBJECT_NAME":"ONEWEB-0372","OBJECT_ID":"2021-090V","EPOCH":"2026-05-06T08:14:45.896928","MEAN_MOTION":13.20774072,"ECCENTRICITY":0.0001801,"INCLINATION":87.9153,"RA_OF_ASC_NODE":282.7887,"ARG_OF_PERICENTER":96.3169,"MEAN_ANOMALY":263.8169,"EPHEMERIS_TYPE":0,"CLASSIFICATION_TYPE":"U","NORAD_CAT_ID":49298,"ELEMENT_SET_NO":999,"REV_AT_EPOCH":22431,"BSTAR":-0.00011496000000000001,"MEAN_MOTION_DOT":-3.4e-07,"MEAN_MOTION_DDOT":0.0},{"OBJECT_NAME":"ONEWEB-0373","OBJECT_ID":"2021-090W","EPOCH":"2026-05-06T08:53:35.450880","MEAN_MOTION":13.20784875,"ECCENTRICITY":0.0001864,"INCLINATION":87.9145,"RA_OF_ASC_NODE":282.7854,"ARG_OF_PERICENTER":99.336,"MEAN_ANOMALY":260.7984,"EPHEMERIS_TYPE":0,"CLASSIFICATION_TYPE":"U","NORAD_CAT_ID":49299,"ELEMENT_SET_NO":999,"REV_AT_EPOCH":22550,"BSTAR":0.0039002,"MEAN_MOTION_DOT":1.599e-05,"MEAN_MOTION_DDOT":0.0},{"OBJECT_NAME":"ONEWEB-0374","OBJECT_ID":"2021-090X","EPOCH":"2026-05-06T09:44:53.119104","MEAN_MOTION":13.14504313,"ECCENTRICITY":0.0002275,"INCLINATION":87.8932,"RA_OF_ASC_NODE":298.0336,"ARG_OF_PERICENTER":104.3661,"MEAN_ANOMALY":255.7721,"EPHEMERIS_TYPE":0,"CLASSIFICATION_TYPE":"U","NORAD_CAT_ID":49300,"ELEMENT_SET_NO":999,"REV_AT_EPOCH":22207,"BSTAR":5.715400000000001e-05,"MEAN_MOTION_DOT":3.4e-07,"MEAN_MOTION_DDOT":0.0},{"OBJECT_NAME":"ONEWEB-0375","OBJECT_ID":"2021-090Y","EPOCH":"2026-05-06T08:35:25.572768","MEAN_MOTION":13.20770585,"ECCENTRICITY":0.0002182,"INCLINATION":87.9152,"RA_OF_ASC_NODE":282.7782,"ARG_OF_PERICENTER":109.1475,"MEAN_ANOMALY":250.9895,"EPHEMERIS_TYPE":0,"CLASSIFICATION_TYPE":"U","NORAD_CAT_ID":49301,"ELEMENT_SET_NO":999,"REV_AT_EPOCH":22500,"BSTAR":-3.094700000000001e-05,"MEAN_MOTION_DOT":0.0,"MEAN_MOTION_DDOT":0.0},{"OBJECT_NAME":"ONEWEB-0376","OBJECT_ID":"2021-090Z","EPOCH":"2026-05-06T06:16:42.302208","MEAN_MOTION":13.19726194,"ECCENTRICITY":0.0001827,"INCLINATION":87.9154,"RA_OF_ASC_NODE":313.3241,"ARG_OF_PERICENTER":83.2912,"MEAN_ANOMALY":276.8429,"EPHEMERIS_TYPE":0,"CLASSIFICATION_TYPE":"U","NORAD_CAT_ID":49302,"ELEMENT_SET_NO":999,"REV_AT_EPOCH":22092,"BSTAR":2.4619e-05,"MEAN_MOTION_DOT":2.3e-07,"MEAN_MOTION_DDOT":0.0},{"OBJECT_NAME":"ONEWEB-0377","OBJECT_ID":"2021-090AA","EPOCH":"2026-05-06T10:04:16.321440","MEAN_MOTION":13.20771098,"ECCENTRICITY":0.0001697,"INCLINATION":87.9155,"RA_OF_ASC_NODE":282.7677,"ARG_OF_PERICENTER":102.7649,"MEAN_ANOMALY":257.3674,"EPHEMERIS_TYPE":0,"CLASSIFICATION_TYPE":"U","NORAD_CAT_ID":49303,"ELEMENT_SET_NO":999,"REV_AT_EPOCH":22500,"BSTAR":-0.00037464,"MEAN_MOTION_DOT":-1.39e-06,"MEAN_MOTION_DDOT":0.0},{"OBJECT_NAME":"ONEWEB-0378","OBJECT_ID":"2021-090AB","EPOCH":"2026-05-06T08:46:55.795584","MEAN_MOTION":13.20798935,"ECCENTRICITY":0.000198,"INCLINATION":87.9146,"RA_OF_ASC_NODE":282.7861,"ARG_OF_PERICENTER":98.9874,"MEAN_ANOMALY":261.1484,"EPHEMERIS_TYPE":0,"CLASSIFICATION_TYPE":"U","NORAD_CAT_ID":49304,"ELEMENT_SET_NO":999,"REV_AT_EPOCH":22426,"BSTAR":0.007757,"MEAN_MOTION_DOT":3.169e-05,"MEAN_MOTION_DDOT":0.0},{"OBJECT_NAME":"ONEWEB-0379","OBJECT_ID":"2021-090AC","EPOCH":"2026-05-06T11:27:39.635712","MEAN_MOTION":13.14503709,"ECCENTRICITY":0.0001912,"INCLINATION":87.893,"RA_OF_ASC_NODE":298.0303,"ARG_OF_PERICENTER":95.2503,"MEAN_ANOMALY":264.8845,"EPHEMERIS_TYPE":0,"CLASSIFICATION_TYPE":"U","NORAD_CAT_ID":49305,"ELEMENT_SET_NO":999,"REV_AT_EPOCH":22208,"BSTAR":0.00034868,"MEAN_MOTION_DOT":1.42e-06,"MEAN_MOTION_DDOT":0.0},{"OBJECT_NAME":"ONEWEB-0380","OBJECT_ID":"2021-090AD","EPOCH":"2026-05-06T11:39:41.230368","MEAN_MOTION":13.19724826,"ECCENTRICITY":0.000177,"INCLINATION":87.9147,"RA_OF_ASC_NODE":313.2885,"ARG_OF_PERICENTER":97.0042,"MEAN_ANOMALY":263.1293,"EPHEMERIS_TYPE":0,"CLASSIFICATION_TYPE":"U","NORAD_CAT_ID":49306,"ELEMENT_SET_NO":999,"REV_AT_EPOCH":22092,"BSTAR":-7.6401e-05,"MEAN_MOTION_DOT":-1.8e-07,"MEAN_MOTION_DDOT":0.0},{"OBJECT_NAME":"ONEWEB-0381","OBJECT_ID":"2021-090AE","EPOCH":"2026-05-06T09:59:31.140096","MEAN_MOTION":13.20758716,"ECCENTRICITY":0.0001992,"INCLINATION":87.9159,"RA_OF_ASC_NODE":282.773,"ARG_OF_PERICENTER":102.8768,"MEAN_ANOMALY":257.2588,"EPHEMERIS_TYPE":0,"CLASSIFICATION_TYPE":"U","NORAD_CAT_ID":49307,"ELEMENT_SET_NO":999,"REV_AT_EPOCH":22431,"BSTAR":-0.0031137,"MEAN_MOTION_DOT":-1.253e-05,"MEAN_MOTION_DDOT":0.0},{"OBJECT_NAME":"ONEWEB-0382","OBJECT_ID":"2021-090AF","EPOCH":"2026-05-06T07:52:13.774944","MEAN_MOTION":13.20770719,"ECCENTRICITY":0.0001703,"INCLINATION":87.9133,"RA_OF_ASC_NODE":282.7826,"ARG_OF_PERICENTER":83.6702,"MEAN_ANOMALY":276.4625,"EPHEMERIS_TYPE":0,"CLASSIFICATION_TYPE":"U","NORAD_CAT_ID":49308,"ELEMENT_SET_NO":999,"REV_AT_EPOCH":22429,"BSTAR":-0.00047053000000000004,"MEAN_MOTION_DOT":-1.78e-06,"MEAN_MOTION_DDOT":0.0},{"OBJECT_NAME":"ONEWEB-0383","OBJECT_ID":"2021-090AG","EPOCH":"2026-05-05T22:31:16.400928","MEAN_MOTION":13.14502476,"ECCENTRICITY":0.0001949,"INCLINATION":87.8939,"RA_OF_ASC_NODE":298.1269,"ARG_OF_PERICENTER":93.1151,"MEAN_ANOMALY":267.0202,"EPHEMERIS_TYPE":0,"CLASSIFICATION_TYPE":"U","NORAD_CAT_ID":49309,"ELEMENT_SET_NO":999,"REV_AT_EPOCH":22204,"BSTAR":0.00038394,"MEAN_MOTION_DOT":1.55e-06,"MEAN_MOTION_DDOT":0.0},{"OBJECT_NAME":"ONEWEB-0384","OBJECT_ID":"2021-090AH","EPOCH":"2026-05-05T20:42:53.075520","MEAN_MOTION":13.20810344,"ECCENTRICITY":0.0002351,"INCLINATION":87.9154,"RA_OF_ASC_NODE":282.9218,"ARG_OF_PERICENTER":100.272,"MEAN_ANOMALY":259.8679,"EPHEMERIS_TYPE":0,"CLASSIFICATION_TYPE":"U","NORAD_CAT_ID":49310,"ELEMENT_SET_NO":999,"REV_AT_EPOCH":22424,"BSTAR":8.7656e-05,"MEAN_MOTION_DOT":4.9e-07,"MEAN_MOTION_DDOT":0.0},{"OBJECT_NAME":"ONEWEB-0385","OBJECT_ID":"2021-090AJ","EPOCH":"2026-05-06T09:29:58.656192","MEAN_MOTION":13.20770632,"ECCENTRICITY":0.0001992,"INCLINATION":87.9158,"RA_OF_ASC_NODE":282.7772,"ARG_OF_PERICENTER":98.9419,"MEAN_ANOMALY":261.194,"EPHEMERIS_TYPE":0,"CLASSIFICATION_TYPE":"U","NORAD_CAT_ID":49311,"ELEMENT_SET_NO":999,"REV_AT_EPOCH":22428,"BSTAR":0.00025783,"MEAN_MOTION_DOT":1.18e-06,"MEAN_MOTION_DDOT":0.0},{"OBJECT_NAME":"ONEWEB-0386","OBJECT_ID":"2021-090AK","EPOCH":"2026-05-06T09:54:59.544288","MEAN_MOTION":13.20760172,"ECCENTRICITY":0.0002013,"INCLINATION":87.9166,"RA_OF_ASC_NODE":282.7625,"ARG_OF_PERICENTER":97.7093,"MEAN_ANOMALY":262.427,"EPHEMERIS_TYPE":0,"CLASSIFICATION_TYPE":"U","NORAD_CAT_ID":49312,"ELEMENT_SET_NO":999,"REV_AT_EPOCH":22430,"BSTAR":-0.002755,"MEAN_MOTION_DOT":-1.107e-05,"MEAN_MOTION_DDOT":0.0}]