ONEWEB-0371             
1 49297U 21090U   26126.49063613 -.00000047  00000+0 -14904-3 0  9995
2 49297  87.9150 313.2808 0001725  86.6472 273.4858 13.19724990220956
ONEWEB-0372             
1 49298U 21090V   26126.34358677 -.00000034  00000+0 -11496-3 0  9996
2 49298  87.9153 282.7887 0001801  96.3169 263.8169 13.20774072224313
ONEWEB-0373             
1 49299U 21090W   26126.37054920  .00001599  00000+0  39002-2 0  9991
2 49299  87.9145 282.7854 0001864  99.3360 260.7984 13.20784875225509
ONEWEB-0374             
1 49300U 21090X   26126.40617036  .00000034  00000+0  57154-4 0  9994
2 49300  87.8932 298.0336 0002275 104.3661 255.7721 13.14504313222070
ONEWEB-0375             
1 49301U 21090Y   26126.35793487  .00000000  00000+0 -30947-4 0  9999
2 49301  87.9152 282.7782 0002182 109.1475 250.9895 13.20770585225002
ONEWEB-0376             
1 49302U 21090Z   26126.26160072  .00000023  00000+0  24619-4 0  9991
2 49302  87.9154 313.3241 0001827  83.2912 276.8429 13.19726194220920
ONEWEB-0377             
1 49303U 21090AA  26126.41963335 -.00000139  00000+0 -37464-3 0  9993
2 49303  87.9155 282.7677 0001697 102.7649 257.3674 13.20771098225008
ONEWEB-0378             
1 49304U 21090AB  26126.36592356  .00003169  00000+0  77570-2 0  9994
2 49304  87.9146 282.7861 0001980  98.9874 261.1484 13.20798935224263
ONEWEB-0379             
1 49305U 21090AC  26126.47754208  .00000142  00000+0  34868-3 0  9995
2 49305  87.8930 298.0303 0001912  95.2503 264.8845 13.14503709222084
ONEWEB-0380             
1 49306U 21090AD  26126.48589387 -.00000018  00000+0 -76401-4 0  9995
2 49306  87.9147 313.2885 0001770  97.0042 263.1293 13.19724826220921
ONEWEB-0381             
1 49307U 21090AE  26126.41633264 -.00001253  00000+0 -31137-2 0  9990
2 49307  87.9159 282.7730 0001992 102.8768 257.2588 13.20758716224315
ONEWEB-0382             
1 49308U 21090AF  26126.32793721 -.00000178  00000+0 -47053-3 0  9996
2 49308  87.9133 282.7826 0001703  83.6702 276.4625 13.20770719224297
ONEWEB-0383             
1 49309U 21090AG  26125.93838427  .00000155  00000+0  38394-3 0  9997
2 49309  87.8939 298.1269 0001949  93.1151 267.0202 13.14502476222043
ONEWEB-0384             
1 49310U 21090AH  26125.86311430  .00000049  00000+0  87656-4 0  9999
2 49310  87.9154 282.9218 0002351 100.2720 259.8679 13.20810344224244
ONEWEB-0385             
1 49311U 21090AJ  26126.39581778  .00000118  00000+0  25783-3 0  9992
2 49311  87.9158 282.7772 0001992  98.9419 261.1940 13.20770632224286
ONEWEB-0386             
1 49312U 21090AK  26126.41318917 -.00001107  00000+0 -27550-2 0  9993
2 49312  87.9166 282.7625 0002013  97.7093 262.4270 13.20760172224304
